CCSDS_OMM_VERS = 2.0
CREATION_DATE  = 
ORIGINATOR     = 

OBJECT_NAME    = STARLINK-36502
OBJECT_ID      = 2026-020L
CENTER_NAME    = EARTH
REF_FRAME      = TEME
TIME_SYSTEM    = UTC
MEAN_ELEMENT_THEORY = SGP/SGP4

EPOCH          = 2026-03-01T00:00:01.999296
MEAN_MOTION    = 15.76394840
ECCENTRICITY   = .0001594
INCLINATION    = 42.9998
RA_OF_ASC_NODE = 194.4118
ARG_OF_PERICENTER = 264.9884
MEAN_ANOMALY   = 1.2026

EPHEMERIS_TYPE = 0
CLASSIFICATION_TYPE = U
NORAD_CAT_ID   = 67627
ELEMENT_SET_NO = 999
REV_AT_EPOCH   = 599
BSTAR          = -.33124E-3
MEAN_MOTION_DOT = -.5415E-3
MEAN_MOTION_DDOT = 0

CCSDS_OMM_VERS = 2.0
CREATION_DATE  = 
ORIGINATOR     = 

OBJECT_NAME    = STARLINK-36532
OBJECT_ID      = 2026-020M
CENTER_NAME    = EARTH
REF_FRAME      = TEME
TIME_SYSTEM    = UTC
MEAN_ELEMENT_THEORY = SGP/SGP4

EPOCH          = 2026-03-01T00:00:01.999296
MEAN_MOTION    = 15.76413130
ECCENTRICITY   = .000167
INCLINATION    = 43.0002
RA_OF_ASC_NODE = 194.3804
ARG_OF_PERICENTER = 266.8782
MEAN_ANOMALY   = 11.7526

EPHEMERIS_TYPE = 0
CLASSIFICATION_TYPE = U
NORAD_CAT_ID   = 67628
ELEMENT_SET_NO = 999
REV_AT_EPOCH   = 599
BSTAR          = -.6247E-3
MEAN_MOTION_DOT = -.101219E-2
MEAN_MOTION_DDOT = 0

CCSDS_OMM_VERS = 2.0
CREATION_DATE  = 
ORIGINATOR     = 

OBJECT_NAME    = STARLINK-36367
OBJECT_ID      = 2026-020N
CENTER_NAME    = EARTH
REF_FRAME      = TEME
TIME_SYSTEM    = UTC
MEAN_ELEMENT_THEORY = SGP/SGP4

EPOCH          = 2026-02-28T15:47:55.410144
MEAN_MOTION    = 15.76452883
ECCENTRICITY   = .00008818
INCLINATION    = 42.9999
RA_OF_ASC_NODE = 196.8000
ARG_OF_PERICENTER = 231.9224
MEAN_ANOMALY   = 128.1567

EPHEMERIS_TYPE = 0
CLASSIFICATION_TYPE = U
NORAD_CAT_ID   = 67629
ELEMENT_SET_NO = 999
REV_AT_EPOCH   = 466
BSTAR          = .23886392E-2
MEAN_MOTION_DOT = .409456E-2
MEAN_MOTION_DDOT = 0

CCSDS_OMM_VERS = 2.0
CREATION_DATE  = 
ORIGINATOR     = 

OBJECT_NAME    = STARLINK-36416
OBJECT_ID      = 2026-020P
CENTER_NAME    = EARTH
REF_FRAME      = TEME
TIME_SYSTEM    = UTC
MEAN_ELEMENT_THEORY = SGP/SGP4

EPOCH          = 2026-02-28T17:41:13.827840
MEAN_MOTION    = 15.76434535
ECCENTRICITY   = .00018955
INCLINATION    = 42.9995
RA_OF_ASC_NODE = 196.5391
ARG_OF_PERICENTER = 286.6847
MEAN_ANOMALY   = 73.3814

EPHEMERIS_TYPE = 0
CLASSIFICATION_TYPE = U
NORAD_CAT_ID   = 67630
ELEMENT_SET_NO = 999
REV_AT_EPOCH   = 467
BSTAR          = .11794537E-2
MEAN_MOTION_DOT = .196691E-2
MEAN_MOTION_DDOT = 0

CCSDS_OMM_VERS = 2.0
CREATION_DATE  = 
ORIGINATOR     = 

OBJECT_NAME    = STARLINK-36527
OBJECT_ID      = 2026-020Q
CENTER_NAME    = EARTH
REF_FRAME      = TEME
TIME_SYSTEM    = UTC
MEAN_ELEMENT_THEORY = SGP/SGP4

EPOCH          = 2026-03-01T00:00:01.999296
MEAN_MOTION    = 15.76398284
ECCENTRICITY   = .0001699
INCLINATION    = 42.9999
RA_OF_ASC_NODE = 194.2870
ARG_OF_PERICENTER = 275.2892
MEAN_ANOMALY   = 40.6704

EPHEMERIS_TYPE = 0
CLASSIFICATION_TYPE = U
NORAD_CAT_ID   = 67631
ELEMENT_SET_NO = 999
REV_AT_EPOCH   = 599
BSTAR          = -.49936E-3
MEAN_MOTION_DOT = -.81146E-3
MEAN_MOTION_DDOT = 0

CCSDS_OMM_VERS = 2.0
CREATION_DATE  = 
ORIGINATOR     = 

OBJECT_NAME    = STARLINK-36633
OBJECT_ID      = 2026-020R
CENTER_NAME    = EARTH
REF_FRAME      = TEME
TIME_SYSTEM    = UTC
MEAN_ELEMENT_THEORY = SGP/SGP4

EPOCH          = 2026-02-28T18:28:19.952832
MEAN_MOTION    = 15.76437727
ECCENTRICITY   = .00013422
INCLINATION    = 42.9997
RA_OF_ASC_NODE = 195.9054
ARG_OF_PERICENTER = 290.4951
MEAN_ANOMALY   = 69.5774

EPHEMERIS_TYPE = 0
CLASSIFICATION_TYPE = U
NORAD_CAT_ID   = 67632
ELEMENT_SET_NO = 999
REV_AT_EPOCH   = 468
BSTAR          = .18408748E-2
MEAN_MOTION_DOT = .311547E-2
MEAN_MOTION_DDOT = 0

CCSDS_OMM_VERS = 2.0
CREATION_DATE  = 
ORIGINATOR     = 

OBJECT_NAME    = STARLINK-36637
OBJECT_ID      = 2026-020S
CENTER_NAME    = EARTH
REF_FRAME      = TEME
TIME_SYSTEM    = UTC
MEAN_ELEMENT_THEORY = SGP/SGP4

EPOCH          = 2026-02-28T17:38:04.602336
MEAN_MOTION    = 15.76436160
ECCENTRICITY   = .00022367
INCLINATION    = 43.0000
RA_OF_ASC_NODE = 196.5218
ARG_OF_PERICENTER = 282.7107
MEAN_ANOMALY   = 77.3513

EPHEMERIS_TYPE = 0
CLASSIFICATION_TYPE = U
NORAD_CAT_ID   = 67633
ELEMENT_SET_NO = 999
REV_AT_EPOCH   = 467
BSTAR          = .9728587E-3
MEAN_MOTION_DOT = .161491E-2
MEAN_MOTION_DDOT = 0

CCSDS_OMM_VERS = 2.0
CREATION_DATE  = 
ORIGINATOR     = 

OBJECT_NAME    = STARLINK-36617
OBJECT_ID      = 2026-020T
CENTER_NAME    = EARTH
REF_FRAME      = TEME
TIME_SYSTEM    = UTC
MEAN_ELEMENT_THEORY = SGP/SGP4

EPOCH          = 2026-02-28T00:00:00.999648
MEAN_MOTION    = 15.76366533
ECCENTRICITY   = .00017903
INCLINATION    = 42.9994
RA_OF_ASC_NODE = 200.3960
ARG_OF_PERICENTER = 260.0392
MEAN_ANOMALY   = 121.5727

EPHEMERIS_TYPE = 0
CLASSIFICATION_TYPE = U
NORAD_CAT_ID   = 67634
ELEMENT_SET_NO = 999
REV_AT_EPOCH   = 583
BSTAR          = .53095638E-4
MEAN_MOTION_DOT = .8167E-4
MEAN_MOTION_DDOT = 0

CCSDS_OMM_VERS = 2.0
CREATION_DATE  = 
ORIGINATOR     = 

OBJECT_NAME    = STARLINK-36627
OBJECT_ID      = 2026-020U
CENTER_NAME    = EARTH
REF_FRAME      = TEME
TIME_SYSTEM    = UTC
MEAN_ELEMENT_THEORY = SGP/SGP4

EPOCH          = 2026-02-28T09:52:25.655520
MEAN_MOTION    = 15.76446717
ECCENTRICITY   = .00009224
INCLINATION    = 42.9960
RA_OF_ASC_NODE = 198.3929
ARG_OF_PERICENTER = 238.8339
MEAN_ANOMALY   = 121.2440

EPHEMERIS_TYPE = 0
CLASSIFICATION_TYPE = U
NORAD_CAT_ID   = 67635
ELEMENT_SET_NO = 999
REV_AT_EPOCH   = 462
BSTAR          = .19229201E-2
MEAN_MOTION_DOT = .326161E-2
MEAN_MOTION_DDOT = 0

CCSDS_OMM_VERS = 2.0
CREATION_DATE  = 
ORIGINATOR     = 

OBJECT_NAME    = STARLINK-36624
OBJECT_ID      = 2026-020V
CENTER_NAME    = EARTH
REF_FRAME      = TEME
TIME_SYSTEM    = UTC
MEAN_ELEMENT_THEORY = SGP/SGP4

EPOCH          = 2026-02-28T18:31:29.145504
MEAN_MOTION    = 15.76423043
ECCENTRICITY   = .00019376
INCLINATION    = 42.9984
RA_OF_ASC_NODE = 195.9234
ARG_OF_PERICENTER = 291.2444
MEAN_ANOMALY   = 68.8219

EPHEMERIS_TYPE = 0
CLASSIFICATION_TYPE = U
NORAD_CAT_ID   = 67636
ELEMENT_SET_NO = 999
REV_AT_EPOCH   = 468
BSTAR          = .1290809E-2
MEAN_MOTION_DOT = .215686E-2
MEAN_MOTION_DDOT = 0

CCSDS_OMM_VERS = 2.0
CREATION_DATE  = 
ORIGINATOR     = 

OBJECT_NAME    = STARLINK-36610
OBJECT_ID      = 2026-020W
CENTER_NAME    = EARTH
REF_FRAME      = TEME
TIME_SYSTEM    = UTC
MEAN_ELEMENT_THEORY = SGP/SGP4

EPOCH          = 2026-02-28T09:55:35.088384
MEAN_MOTION    = 15.76596394
ECCENTRICITY   = .00012594
INCLINATION    = 42.9981
RA_OF_ASC_NODE = 198.4097
ARG_OF_PERICENTER = 239.1173
MEAN_ANOMALY   = 120.9573

EPHEMERIS_TYPE = 0
CLASSIFICATION_TYPE = U
NORAD_CAT_ID   = 67637
ELEMENT_SET_NO = 999
REV_AT_EPOCH   = 462
BSTAR          = .22897961E-2
MEAN_MOTION_DOT = .394258E-2
MEAN_MOTION_DDOT = 0

CCSDS_OMM_VERS = 2.0
CREATION_DATE  = 
ORIGINATOR     = 

OBJECT_NAME    = STARLINK-36599
OBJECT_ID      = 2026-020X
CENTER_NAME    = EARTH
REF_FRAME      = TEME
TIME_SYSTEM    = UTC
MEAN_ELEMENT_THEORY = SGP/SGP4

EPOCH          = 2026-02-28T10:26:54.271104
MEAN_MOTION    = 15.76680362
ECCENTRICITY   = .00028295
INCLINATION    = 42.9990
RA_OF_ASC_NODE = 197.6876
ARG_OF_PERICENTER = 236.7233
MEAN_ANOMALY   = 123.3366

EPHEMERIS_TYPE = 0
CLASSIFICATION_TYPE = U
NORAD_CAT_ID   = 67638
ELEMENT_SET_NO = 999
REV_AT_EPOCH   = 463
BSTAR          = .27423542E-2
MEAN_MOTION_DOT = .478843E-2
MEAN_MOTION_DDOT = 0

